CAS-2T & KS-1Q          
1 41847U 16066G   21152.89061529  .00000086  00000-0  24156-4 0  9990
2 41847  98.6020 211.9542 0364043 266.8508  89.0976 14.38191035239648
NAYIF-1 (EO-88)         
1 42017U 17008BX  21152.58372764  .00002051  00000-0  77447-4 0  9994
2 42017  97.3160 220.4676 0006815 151.0255 209.1364 15.28116459238839
ZHUHAI-1 02 (CAS-4B)    
1 42759U 17034B   21152.82823591  .00000379  00000-0  36106-4 0  9990
2 42759  43.0175 266.9835 0007958  59.2003  83.8603 15.10214251218782
ZHUHAI-1 01 (CAS-4A)    
1 42761U 17034D   21152.82016561  .00000505  00000-0  43616-4 0  9999
2 42761  43.0180 266.0970 0008063  62.6959  80.6480 15.10300783218782
MAX VALIER SAT          
1 42778U 17036P   21152.86990347  .00001374  00000-0  60269-4 0  9994
2 42778  97.2559 201.9912 0010559 224.7973 135.2413 15.23573100218912
RADFXSAT (FOX-1B)       
1 43017U 17073E   21152.64363146  .00000921  00000-0  76270-4 0  9995
2 43017  97.7082  57.2551 0254932 352.3448   7.3903 14.79539030190787
FOX-1D (AO-92)          
1 43137U 18004AC  21152.78430247  .00001470  00000-0  61406-4 0  9990
2 43137  97.4070 226.9756 0007116 265.4213  94.6212 15.25217679188277
DIWATA-2B               
1 43678U 18084H   21152.89181549 -.00000236  00000-0 -17664-4 0  9996
2 43678  97.9214 278.0922 0011375  99.9241 260.3273 14.91746450141115
ES'HAIL 2               
1 43700U 18090A   21152.84518562  .00000135  00000-0  00000-0 0  9991
2 43700   0.0122 298.8501 0001389 155.4023 126.3618  1.00274234  9217
FOX-1CLIFF (AO-95)      
1 43770U 18099N   21152.45685197  .00000329  00000-0  34950-4 0  9993
2 43770  97.6651 222.9968 0015996 109.9353 250.3592 14.95312002136064
ITASAT 1                
1 43786U 18099AE  21152.78063240 -.00000005  00000-0  46725-5 0  9991
2 43786  97.6672 223.9807 0016620 102.4485 257.8597 14.95609283136142
JY1SAT (JO-97)          
1 43803U 18099AX  21152.61329663  .00000886  00000-0  84187-4 0  9996
2 43803  97.6636 223.5704 0016811 103.0018 257.3081 14.95854889136120
UWE-4                   
1 43880U 18111E   21152.54066370  .00000411  00000-0  40881-4 0  9998
2 43880  97.6875  60.5443 0012835 151.6930 208.4992 14.96854719132704
PSAT2 (NO-104)          
1 44354U 19036R   21152.54451205  .00010680  00000-0  13897-3 0  9992
2 44354  28.5257 233.0764 0327438 103.5860 260.1418 15.13132167106566
BRICSAT2 (NO-103)       
1 44355U 19036S   21152.41559654  .00023889  00000-0  26326-3 0  9992
2 44355  28.5230 191.4495 0266996 171.3768 189.1536 15.28683217106976
JAISAT-1                
1 44419U 19038F   21152.64136298  .00001231  00000-0  71726-4 0  9997
2 44419  97.5873 117.4023 0021457  11.6856 348.4869 15.13730747105407
DUCHIFAT-3              
1 44854U 19089C   21152.81189102  .00000450  00000-0  42359-4 0  9999
2 44854  36.9639 193.1349 0008638   4.8333 355.2496 14.99488257 80750
RS-44 & BREEZE-KM R/B   
1 44909U 19096E   21152.67837676  .00000036  00000-0  91698-4 0  9998
2 44909  82.5189 123.2938 0218231 129.7762 232.2785 12.79709985 66806
ORBITAL FACTORY 2 (OF-2)
1 45113U 19071C   21152.59256076  .00001958  00000-0  66510-4 0  9998
2 45113  51.6418 114.4084 0011254 235.3526 124.6397 15.35675186 74732
HUSKYSAT-1 (HO-107)     
1 45119U 19071J   21152.86456479  .00001981  00000-0  67087-4 0  9999
2 45119  51.6415 112.4704 0010671 232.6434 127.3577 15.35711065 74773
BY70-2                  
1 45857U 20042B   21152.79267624  .00001498  00000-0  21981-3 0  9997
2 45857  97.9835 228.7027 0009147 261.8093  98.2073 14.76993080 49234
SALSAT                  
1 46495U 20068K   21152.88717317  .00000422  00000-0  35418-4 0  9990
2 46495  97.6945  90.4755 0018612 122.2483 238.0546 15.03458042 36997
BY70-3                  
1 46839U 20079N   21152.85749515  .00002864  00000-0  90560-4 0  9997
2 46839  97.2400 227.0221 0005204 259.7377 211.9780 15.33591651 31811
RADFXSAT-2 (AO-109)     
1 47311U 21002C   21152.25914588  .00000733  00000-0  43909-4 0  9996
2 47311  60.6860 351.8201 0034282  39.3919 320.9651 15.21614914 20403
UVSQ-SAT                
1 47438U 21006AB  21152.84099945  .00001054  00000-0  63060-4 0  9993
2 47438  97.4880 214.3438 0013720 146.2175 213.9933 15.13109147 19695
DIY-1 (ARDUIQUBE)       
1 47963U 21022AH  21152.42830174  .00001598  00000-0  10993-3 0  9994
2 47963  97.5590  55.0451 0020121   4.9812 355.1612 15.07178895  9481
